{
  "type": "FeatureCollection",
  "features": [
    {
      "type": "Feature",
      "properties": {
        "norad_id": 40115,
        "name": "WORLDVIEW-3 (WV-3)",
        "group": "resource",
        "lat": 81.71193513805706,
        "lon": -9.801693769966185,
        "alt_km": 604.4099705425806,
        "timestamp": "2025-12-15T11:38:36.814755+00:00",
        "meta_object_name": "WORLDVIEW-3 (WV-3)",
        "meta_object_id": "2014-048A",
        "meta_epoch": "2025-12-14T22:19:07.435488",
        "meta_mean_motion": 14.85516678,
        "meta_eccentricity": 0.00049509,
        "meta_inclination": 97.8615,
        "meta_ra_of_asc_node": 61.1828,
        "meta_arg_of_pericenter": 177.6308,
        "meta_mean_anomaly": 182.4932,
        "meta_ephemeris_type": 0,
        "meta_classification_type": "U",
        "meta_norad_cat_id": 40115,
        "meta_element_set_no": 999,
        "meta_rev_at_epoch": 61456,
        "meta_bstar": 0.00014867518,
        "meta_mean_motion_dot": 1.23e-05,
        "meta_mean_motion_ddot": 0,
        "tle_line1": "1 40115U 14048A   25348.92994717  .00001230  00000+0  14868-3 0  9993",
        "tle_line2": "2 40115  97.8615  61.1828 0004950 177.6308 182.4932 14.85516678614567"
      },
      "geometry": {
        "type": "Point",
        "coordinates": [
          -9.801693769966185,
          81.71193513805706
        ]
      }
    },
    {
      "type": "Feature",
      "properties": {
        "norad_id": 40118,
        "name": "GAOFEN-2",
        "group": "resource",
        "lat": -36.27711634078185,
        "lon": -137.29557279192395,
        "alt_km": 635.9677838321995,
        "timestamp": "2025-12-15T11:38:36.814765+00:00",
        "meta_object_name": "GAOFEN-2",
        "meta_object_id": "2014-049A",
        "meta_epoch": "2025-12-14T23:18:56.090592",
        "meta_mean_motion": 14.80613631,
        "meta_eccentricity": 0.00086473,
        "meta_inclination": 98.0386,
        "meta_ra_of_asc_node": 48.1436,
        "meta_arg_of_pericenter": 106.565,
        "meta_mean_anomaly": 253.6512,
        "meta_ephemeris_type": 0,
        "meta_classification_type": "U",
        "meta_norad_cat_id": 40118,
        "meta_element_set_no": 999,
        "meta_rev_at_epoch": 61197,
        "meta_bstar": 9.0857001e-05,
        "meta_mean_motion_dot": 6.44e-06,
        "meta_mean_motion_ddot": 0,
        "tle_line1": "1 40118U 14049A   25348.97148253  .00000644  00000+0  90857-4 0  9999",
        "tle_line2": "2 40118  98.0386  48.1436 0008647 106.5650 253.6512 14.80613631611975"
      },
      "geometry": {
        "type": "Point",
        "coordinates": [
          -137.29557279192395,
          -36.27711634078185
        ]
      }
    },
    {
      "type": "Feature",
      "properties": {
        "norad_id": 40143,
        "name": "YAOGAN-21",
        "group": "resource",
        "lat": -64.02170138400619,
        "lon": -162.30788313729843,
        "alt_km": 507.48512137141915,
        "timestamp": "2025-12-15T11:38:36.814775+00:00",
        "meta_object_name": "YAOGAN-21",
        "meta_object_id": "2014-053A",
        "meta_epoch": "2025-12-14T23:32:20.511744",
        "meta_mean_motion": 15.23706363,
        "meta_eccentricity": 0.00096055,
        "meta_inclination": 97.1766,
        "meta_ra_of_asc_node": 32.1961,
        "meta_arg_of_pericenter": 34.4162,
        "meta_mean_anomaly": 325.7696,
        "meta_ephemeris_type": 0,
        "meta_classification_type": "U",
        "meta_norad_cat_id": 40143,
        "meta_element_set_no": 999,
        "meta_rev_at_epoch": 62688,
        "meta_bstar": 0.00018482774,
        "meta_mean_motion_dot": 4.375e-05,
        "meta_mean_motion_ddot": 0,
        "tle_line1": "1 40143U 14053A   25348.98079296  .00004375  00000+0  18483-3 0  9992",
        "tle_line2": "2 40143  97.1766  32.1961 0009605  34.4162 325.7696 15.23706363626886"
      },
      "geometry": {
        "type": "Point",
        "coordinates": [
          -162.30788313729843,
          -64.02170138400619
        ]
      }
    },
    {
      "type": "Feature",
      "properties": {
        "norad_id": 40275,
        "name": "YAOGAN-22",
        "group": "resource",
        "lat": -5.947047803610522,
        "lon": -48.18991664755293,
        "alt_km": 1202.7616579747992,
        "timestamp": "2025-12-15T11:38:36.814785+00:00",
        "meta_object_name": "YAOGAN-22",
        "meta_object_id": "2014-063A",
        "meta_epoch": "2025-12-14T21:55:26.853600",
        "meta_mean_motion": 13.15522727,
        "meta_eccentricity": 0.0005964,
        "meta_inclination": 100.7422,
        "meta_ra_of_asc_node": 132.3637,
        "meta_arg_of_pericenter": 242.8772,
        "meta_mean_anomaly": 117.1732,
        "meta_ephemeris_type": 0,
        "meta_classification_type": "U",
        "meta_norad_cat_id": 40275,
        "meta_element_set_no": 999,
        "meta_rev_at_epoch": 53558,
        "meta_bstar": 6.8907954e-05,
        "meta_mean_motion_dot": -2.1e-07,
        "meta_mean_motion_ddot": 0,
        "tle_line1": "1 40275U 14063A   25348.91350525 -.00000021  00000+0  68908-4 0  9992",
        "tle_line2": "2 40275 100.7422 132.3637 0005964 242.8772 117.1732 13.15522727535580"
      },
      "geometry": {
        "type": "Point",
        "coordinates": [
          -48.18991664755293,
          -5.947047803610522
        ]
      }
    },
    {
      "type": "Feature",
      "properties": {
        "norad_id": 40298,
        "name": "ASNARO",
        "group": "resource",
        "lat": -70.44093943095433,
        "lon": -135.98617159562272,
        "alt_km": 517.3811816003517,
        "timestamp": "2025-12-15T11:38:36.814795+00:00",
        "meta_object_name": "ASNARO",
        "meta_object_id": "2014-070A",
        "meta_epoch": "2025-12-14T23:28:34.351968",
        "meta_mean_motion": 15.19548171,
        "meta_eccentricity": 0.00056195,
        "meta_inclination": 97.365,
        "meta_ra_of_asc_node": 64.8696,
        "meta_arg_of_pericenter": 115.2371,
        "meta_mean_anomaly": 244.9447,
        "meta_ephemeris_type": 0,
        "meta_classification_type": "U",
        "meta_norad_cat_id": 40298,
        "meta_element_set_no": 999,
        "meta_rev_at_epoch": 61603,
        "meta_bstar": 0.00033756384,
        "meta_mean_motion_dot": 7.113e-05,
        "meta_mean_motion_ddot": 0,
        "tle_line1": "1 40298U 14070A   25348.97817537  .00007113  00000+0  33756-3 0  9992",
        "tle_line2": "2 40298  97.3650  64.8696 0005619 115.2371 244.9447 15.19548171616037"
      },
      "geometry": {
        "type": "Point",
        "coordinates": [
          -135.98617159562272,
          -70.44093943095433
        ]
      }
    },
    {
      "type": "Feature",
      "properties": {
        "norad_id": 40310,
        "name": "YAOGAN-24",
        "group": "resource",
        "lat": 23.069111656283404,
        "lon": -55.92097510328371,
        "alt_km": 631.7038640465016,
        "timestamp": "2025-12-15T11:38:36.814805+00:00",
        "meta_object_name": "YAOGAN-24",
        "meta_object_id": "2014-072A",
        "meta_epoch": "2025-12-14T23:32:59.701920",
        "meta_mean_motion": 14.7618325,
        "meta_eccentricity": 0.00148414,
        "meta_inclination": 98.1216,
        "meta_ra_of_asc_node": 120.0858,
        "meta_arg_of_pericenter": 131.1962,
        "meta_mean_anomaly": 229.053,
        "meta_ephemeris_type": 0,
        "meta_classification_type": "U",
        "meta_norad_cat_id": 40310,
        "meta_element_set_no": 999,
        "meta_rev_at_epoch": 59654,
        "meta_bstar": 0.00015560092,
        "meta_mean_motion_dot": 1.025e-05,
        "meta_mean_motion_ddot": 0,
        "tle_line1": "1 40310U 14072A   25348.98124655  .00001025  00000+0  15560-3 0  9991",
        "tle_line2": "2 40310  98.1216 120.0858 0014841 131.1962 229.0530 14.76183250596549"
      },
      "geometry": {
        "type": "Point",
        "coordinates": [
          -55.92097510328371,
          23.069111656283404
        ]
      }
    },
    {
      "type": "Feature",
      "properties": {
        "norad_id": 40336,
        "name": "CBERS 4",
        "group": "resource",
        "lat": -35.408442623160724,
        "lon": -138.57105148123438,
        "alt_km": 779.9647109204552,
        "timestamp": "2025-12-15T11:38:36.814815+00:00",
        "meta_object_name": "CBERS 4",
        "meta_object_id": "2014-079A",
        "meta_epoch": "2025-12-14T22:55:54.920064",
        "meta_mean_motion": 14.35518685,
        "meta_eccentricity": 0.00016905,
        "meta_inclination": 98.3308,
        "meta_ra_of_asc_node": 46.8965,
        "meta_arg_of_pericenter": 109.4567,
        "meta_mean_anomaly": 250.6802,
        "meta_ephemeris_type": 0,
        "meta_classification_type": "U",
        "meta_norad_cat_id": 40336,
        "meta_element_set_no": 999,
        "meta_rev_at_epoch": 57752,
        "meta_bstar": 7.5205069e-05,
        "meta_mean_motion_dot": 1.74e-06,
        "meta_mean_motion_ddot": 0,
        "tle_line1": "1 40336U 14079A   25348.95549676  .00000174  00000+0  75205-4 0  9994",
        "tle_line2": "2 40336  98.3308  46.8965 0001690 109.4567 250.6802 14.35518685577520"
      },
      "geometry": {
        "type": "Point",
        "coordinates": [
          -138.57105148123438,
          -35.408442623160724
        ]
      }
    }
  ]
}